[{"OBJECT_NAME":"TIANQI-31","OBJECT_ID":"2024-170C","EPOCH":"2026-03-09T19:56:33.224640","MEAN_MOTION":13.99125748,"ECCENTRICITY":0.00074343,"INCLINATION":44.861,"RA_OF_ASC_NODE":220.3339,"ARG_OF_PERICENTER":324.2667,"MEAN_ANOMALY":35.7666,"EPHEMERIS_TYPE":0,"CLASSIFICATION_TYPE":"U","NORAD_CAT_ID":61197,"ELEMENT_SET_NO":999,"REV_AT_EPOCH":7503,"BSTAR":0.00014351436,"MEAN_MOTION_DOT":8.1e-7,"MEAN_MOTION_DDOT":0},{"OBJECT_NAME":"CZ-6A DEB","OBJECT_ID":"2022-151LT","EPOCH":"2026-03-09T23:08:40.228800","MEAN_MOTION":14.08289854,"ECCENTRICITY":0.00541829,"INCLINATION":98.8551,"RA_OF_ASC_NODE":68.5315,"ARG_OF_PERICENTER":281.2592,"MEAN_ANOMALY":78.2491,"EPHEMERIS_TYPE":0,"CLASSIFICATION_TYPE":"U","NORAD_CAT_ID":54567,"ELEMENT_SET_NO":999,"REV_AT_EPOCH":17055,"BSTAR":0.00012628575,"MEAN_MOTION_DOT":1.75e-6,"MEAN_MOTION_DDOT":0}]
